{
  "norad_id": 61060,
  "name": "STARLINK-11297 [DTC]",
  "history": [
    {
      "epoch": "2026-03-28T20:05:13.767360",
      "apogee_km": 360.1465791935452,
      "perigee_km": 359.20827115669545,
      "latitude_deg": 50.4056257389266,
      "longitude_deg": 6.3486303999088705,
      "semi_major_axis_km": 6737.81442517512,
      "eccentricity": 6.963e-05,
      "inclination_deg": 53.1583,
      "raan_deg": 217.0633,
      "arg_perigee_deg": 107.3571,
      "mean_anomaly_deg": 252.7523,
      "mean_motion_rev_day": 15.69727237
    }
  ]
}